{
  "norad_id": 56418,
  "name": "STARLINK-5356",
  "history": [
    {
      "epoch": "2026-03-28T15:30:16.280064",
      "apogee_km": 559.8370636265036,
      "perigee_km": 558.2985303466276,
      "latitude_deg": 42.9467640719251,
      "longitude_deg": -116.18191103986464,
      "semi_major_axis_km": 6937.204796986565,
      "eccentricity": 0.00011089,
      "inclination_deg": 43.0042,
      "raan_deg": 68.6725,
      "arg_perigee_deg": 274.5116,
      "mean_anomaly_deg": 85.56,
      "mean_motion_rev_day": 15.02539813
    }
  ]
}