{"fetched_at":"2026-03-29T16:36:15Z","count":15609,"tles":[{"name":"STARLINK-5356","line1":"1 56418U 23061AW  26087.64602176 -.00000391  00000+0 -13838-4 0  9992","line2":"2 56418  43.0042  68.6725 0001108 274.5116  85.5600 15.02539813159904","category":"Starlink"}]}